#aV2023  2 25  0  0  0.00000000     288 DD+AD WGS84 FIT  NGA
## 2250 518400.00000000   300.00000000 60000 0.0000000000000
+   32     1  2  3  4  5  6  7  8  9 10 11 12 13 14 15 16 17
+         18 19 20 21 22 23 24 25 26 27 28 29 30 31 32  0  0
+          0  0  0  0  0  0  0  0  0  0  0  0  0  0  0  0  0
+          0  0  0  0  0  0  0  0  0  0  0  0  0  0  0  0  0
+          0  0  0  0  0  0  0  0  0  0  0  0  0  0  0  0  0
++         2  2  2  2  2  2  2  2  2  2  2  2  2  2  2  2  2
++         2  2  2  2  2  2  2  2  2  2  2  2  2  2  2  0  0
++         0  0  0  0  0  0  0  0  0  0  0  0  0  0  0  0  0
++         0  0  0  0  0  0  0  0  0  0  0  0  0  0  0  0  0
++         0  0  0  0  0  0  0  0  0  0  0  0  0  0  0  0  0
%c cc cc ccc ccc cccc cccc cccc cccc ccccc ccccc ccccc ccccc
%c cc cc ccc ccc cccc cccc cccc cccc ccccc ccccc ccccc ccccc
%f  0.0000000  0.000000000  0.00000000000  0.000000000000000
%f  0.0000000  0.000000000  0.00000000000  0.000000000000000
%i    0    0    0    0      0      0      0      0         0
%i    0    0    0    0      0      0      0      0         0
/*      NGA, ST. LOUIS,MO.                                  
/*   EPHEMERIS COMPUTED FROM 2 DAYS OF DATA                 
/*   EPOCHA v8 SMOOTHER                                     
/*   G2139 IERS2010 SATIGS SATAPC                           
*  2023  2 25  3  5  0.00000000
P  1  10000.795225  13453.306564 -21008.672272    208.836861                    
V  1 -25749.664116   1351.690784 -11226.951900     -0.040840                    
P  2 -13414.077317 -12122.054545  20003.227957   -618.513407                    
V  2  23748.284838  -4292.426103  13992.712017      0.026492                    
P  3  12480.422837  23307.643285  -3255.433226   -358.792769                    
V  3  -3967.225462  -2150.663906 -31690.421050      0.053068                    
P  4   4032.228355  18864.670246  18216.856941    -20.107312                    
V  4 -12608.384244  19478.453468 -17496.479071      0.083685                    
P  5   -967.559939 -20778.786161  16275.903317   -117.215476                    
V  5  13778.800271  15995.027919  21136.886126     -0.014664                    
P  6  25064.736480  -5685.621423   6961.843723    576.057445                    
V  6   8769.519344   1355.688906 -30674.331659      0.038457                    
P  7  22423.527629   7991.441294  12708.698432    234.597035                    
V  7 -15167.815860   2830.135716  25391.952304     -0.073274                    
P  8  -4692.329358  24359.046618  -8983.013778   -110.129122                    
V  8  -7546.379435   9076.052096  29127.356135     -0.018825                    
P  9  12649.135159   8803.823658  21555.109847   -211.858855                    
V  9 -12273.099043  24684.831393  -2915.173545      0.071988                    
P 10 -17641.880936  -2880.782408 -19572.568084    -26.132860                    
V 10 -12922.164213 -21526.163970  14383.673021     -0.016608                    
P 11  15573.047607 -12255.916925  17679.417642   -113.537029                    
V 11  22429.474555   1583.681499 -18702.005729     -0.106422                    
P 12  -9489.485301 -24400.238545  -5057.544931   -344.448680                    
V 12   5086.587052   4097.492877 -30945.570897     -0.046133                    
P 13  12736.469310 -22889.109230  -3877.034386    481.501090                    
V 13   4871.455234  -2366.219985  31577.663943      0.059656                    
P 14  18582.625039   5621.116530 -18177.241931    -18.916851                    
V 14  10494.312823  20622.885345  16970.493832      0.094104                    
P 15   1136.368334 -24792.539636  -9523.256515     16.434085                    
V 15   7070.247461  -9826.178389  28014.329775      0.033314                    
P 16  -3547.094987  19183.982385  17500.772130   -518.485462                    
V 16 -12446.216551 -19427.998413  18906.417475      0.018540                    
P 17  17799.273387  -5399.870970 -18567.890347    702.106514                    
V 17 -11319.200400  21664.491551 -16668.139773      0.022457                    
P 18 -24465.531523  -5354.180082   9062.373160   -154.884799                    
V 18  11368.160701  -2470.691974  29098.928853     -0.160248                    
P 19  18984.576490 -14042.085722 -12105.422514    282.252700                    
V 19  -6475.935396  13798.184605 -26931.344498      0.050847                    
P 20   7783.119843 -14088.874131  21188.802725    448.619000                    
V 20  18510.769150  19451.879737   5939.060284     -0.023636                    
P 21   1286.998490  14869.930046 -21365.194033    154.164739                    
V 21 -28358.838187   3423.520889   1461.079810      0.001486                    
P 22 -17772.786134  17486.758242  -8460.663560    433.857254                    
V 22   3647.802721 -11152.247169 -29373.397787      0.075479                    
P 23 -19423.073653 -13604.196407 -12105.380436      7.684382                    
V 23  -7092.049412 -13702.372758  26627.149723      0.017846                    
P 24  -5963.628790 -15134.549153 -21388.039614    -87.914777                    
V 24  26115.147475  -3917.094316  -4165.119564     -0.157752                    
P 25 -16680.250872 -20488.637233   3610.798319    422.945199                    
V 25   -391.951216  -5665.761501 -30975.744240      0.031404                    
P 26 -13254.754100   8523.678241  21273.598879    241.742608                    
V 26 -16360.792934 -21950.074259  -1052.382599      0.002301                    
P 27 -12635.200888  23053.293008   1234.385382     94.391982                    
V 27  -1764.841662  -2992.676316  32162.660265     -0.088943                    
P 28 -25527.460830   5552.438702   4741.981592     25.144277                    
V 28  -6277.533434  -2196.005220 -31017.835077      0.131882                    
P 29  -9227.102925 -12593.087890  21425.856753   -587.923092                    
V 29  14687.331270 -23001.214919  -7253.150221     -0.020117                    
P 30  26691.062546   -590.450531    697.059280   -529.116526                    
V 30   -627.738218   3408.946741  31002.970598      0.013697                    
P 31 -24525.690522   6623.303497   8337.094086   -210.144939                    
V 31 -10766.404907  -2144.747863 -28922.753658     -0.010103                    
P 32 -17907.423061   8700.256340 -17312.364568   -406.390790                    
V 32   8328.184153 -20874.351551 -19117.857820     -0.113567                    
EOF
